GLOBALSTAR M084         
1 38040U 11080A   25364.86275721 -.00000079  00000+0  13642-3 0  9998
2 38040  51.9987 169.7225 0001356  96.4443  51.1706 12.62267032647506
GLOBALSTAR M080         
1 38041U 11080B   25364.66103997 -.00000076  00000+0  15623-3 0  9990
2 38041  52.0035 171.9965 0000654 108.9811 331.4057 12.62265405647603
GLOBALSTAR M082         
1 38042U 11080C   25365.09224699 -.00000109  00000+0 -28269-4 0  9991
2 38042  52.0066 126.1664 0000625 123.4691  47.0463 12.62266449648366
GLOBALSTAR M092         
1 38043U 11080D   25365.06369957 -.00000063  00000+0  22780-3 0  9995
2 38043  52.0059 216.6428 0001020  80.5163  79.9334 12.62269001646815
GLOBALSTAR M090         
1 38044U 11080E   25364.62938851 -.00000105  00000+0 -46947-5 0  9993
2 38044  52.0113 121.4773 0000770 103.9700   1.0716 12.62265600648421
GLOBALSTAR M086         
1 38045U 11080F   25365.06383181 -.00000102  00000+0  10358-4 0  9995
2 38045  51.9892 120.3588 0001483  64.3152 106.6359 12.62281645648421
GLOBALSTAR M097         
1 39072U 13005A   25365.13374560 -.00000093  00000+0  62476-4 0  9991
2 39072  52.0066  34.9046 0000330  88.6719 271.4185 12.62267776595680
GLOBALSTAR M093         
1 39073U 13005B   25365.02843014 -.00000087  00000+0  92760-4 0  9997
2 39073  52.0121  28.5090 0000251  35.7272 324.3611 12.62271344595622
